ONEWEB-0589             
1 54655U 22166P   25038.89908031 -.00000036  00000+0 -11823-3 0  9996
2 54655  87.9343 342.4943 0001032  61.3735 298.7503 13.21823873106246
ONEWEB-0590             
1 54656U 22166Q   25038.84663825  .00001632  00000+0  39183-2 0  9990
2 54656  87.9332 342.5026 0002082  72.2423 287.8938 13.21857711106226
ONEWEB-0591             
1 54657U 22166R   25038.85966320  .00000148  00000+0  32754-3 0  9997
2 54657  87.9342 342.5029 0001722  76.7305 283.4021 13.21827486106253
ONEWEB-0592             
1 54658U 22166S   25038.86280820  .00000135  00000+0  29443-3 0  9990
2 54658  87.9340 342.4597 0001778  74.6113 285.5217 13.21825930106135
ONEWEB-0593             
1 54659U 22166T   25038.88645527  .00000009  00000+0 -98147-5 0  9992
2 54659  87.9343 342.4890 0001655  76.3009 283.8309 13.21824290106245
ONEWEB-0594             
1 54660U 22166U   25038.90538225 -.00000089  00000+0 -24771-3 0  9992
2 54660  87.9348 342.4934 0001801  81.8262 278.3076 13.21824380106268
ONEWEB-0595             
1 54661U 22166V   25038.88331105  .00000032  00000+0  46560-4 0  9995
2 54661  87.9344 342.4793 0002017  79.2295 280.9065 13.21825352106239
ONEWEB-0596             
1 54662U 22166W   25038.85649740  .00000079  00000+0  15906-3 0  9990
2 54662  87.9348 342.4946 0001760  72.1050 288.0276 13.21826390106235
